STARLINK-31534          
1 59398U 24064A   26068.32047092 -.00000736  00000+0 -17248-4 0  9992
2 59398  43.0026  57.8874 0000936 254.4263 105.6485 15.27574218109117
FLOCK 4G-15             
1 62678U 25009BX  26068.71779869  .00012647  00000+0  47575-3 0  9991
2 62678  97.4054 151.1927 0003699 316.8208  43.2740 15.27266411121358
